     3.04           N: GNSS NAV DATA    M: Mixed            RINEX VERSION / TYPE
CONVBIN demo5 b34g                      20221031 134540 UTC PGM / RUN BY / DATE 
log: data/hydroblockReadDataTest/completeData/2022.10.11_224COMMENT             
format: u-blox UBX                                          COMMENT             
format: u-blox UBX                                          COMMENT             
log: data/hydroblockReadDataTest/completeData/2022.10.11_224COMMENT             
                                                            END OF HEADER       
G02 2022 10 12 00 00 00 -.642723403871D-03  .147792889038D-11  .000000000000D+00
      .137000000000D+03 -.104406250000D+03  .387444710056D-08  .256252925885D+01
     -.521540641785D-05  .200302165467D-01  .114012509584D-04  .515490226364D+04
      .259200000000D+06  .234693288803D-06  .219278224561D-01 -.186264514923D-08
      .966971666960D+00  .157281250000D+03 -.139156597034D+01 -.739459372880D-08
     -.243224416988D-09  .100000000000D+01  .223100000000D+04  .000000000000D+00
      .200000000000D+01  .000000000000D+00 -.172294676304D-07  .137000000000D+03
      .255306000000D+06  .400000000000D+01
S31 2022 10 11 22 57  4  .391155481339D-07  .281943357550D-10  .255400000000D+06
     -.191422836800D+05 -.200000000000D-04 -.250000000000D-07  .000000000000D+00
     -.375687422400D+05 -.155625000000D-03  .000000000000D+00  .200000000000D+01
     -.920000000000D-01  .124000000000D-03  .000000000000D+00  .000000000000D+00
S33 2022 10 11 22 57  4  .419095158577D-08  .245563569479D-10  .255400000000D+06
     -.266143316800D+05  .362500000000D-03 -.625000000000D-07  .000000000000D+00
     -.326975508000D+05 -.688750000000D-03  .000000000000D+00  .200000000000D+01
     -.387280000000D+01  .668000000000D-03  .000000000000D+00  .000000000000D+00
R07 2022 10 11 23 15 00  .424291938543D-04  .000000000000D+00  .255600000000D+06
      .114892285156D+04  .454975128174D+00 -.931322574615D-09  .000000000000D+00
     -.219293027344D+05 -.171759223938D+01  .931322574615D-09  .500000000000D+01
      .129639526367D+05 -.295757484436D+01 -.186264514923D-08  .000000000000D+00
R09 2022 10 11 23 15 00  .815559178591D-04  .272848410532D-11  .255600000000D+06
      .316432617188D+04  .198657226562D+01  .000000000000D+00  .000000000000D+00
     -.126687768555D+05  .224225234985D+01  .186264514923D-08 -.200000000000D+01
      .219461069336D+05  .100172996521D+01 -.186264514923D-08  .000000000000D+00
R08 2022 10 11 23 15 00 -.675655901432D-04  .000000000000D+00  .255600000000D+06
     -.798378759766D+04  .969301223755D+00 -.931322574615D-09  .000000000000D+00
     -.932248388672D+04 -.289764881134D+01  .000000000000D+00  .600000000000D+01
      .224054326172D+05 -.865157127380D+00 -.279396772385D-08  .000000000000D+00
R10 2022 10 11 23 15 00 -.868113711476D-04  .000000000000D+00  .255600000000D+06
     -.964981884766D+04  .106459712982D+01 -.279396772385D-08  .000000000000D+00
     -.198986044922D+05  .137441539764D+01  .000000000000D+00 -.700000000000D+01
      .126426162109D+05  .298169803619D+01 -.186264514923D-08  .000000000000D+00
R06 2022 10 11 23 15 00 -.745235010982D-04 -.181898940355D-11  .255600000000D+06
      .939024804688D+04 -.297739982605D+00 -.931322574615D-09  .000000000000D+00
     -.233867226562D+05  .459154129028D+00  .186264514923D-08 -.400000000000D+01
     -.387068212891D+04 -.351439762115D+01  .000000000000D+00  .000000000000D+00
R18 2022 10 11 23 15 00  .466620549560D-04  .909494701773D-12  .255600000000D+06
      .185261728516D+05 -.231645298004D+01  .465661287308D-08  .000000000000D+00
      .444812792969D+04  .242168426514D+00  .279396772385D-08 -.300000000000D+01
      .169547841797D+05  .247361373901D+01  .000000000000D+00  .000000000000D+00
R17 2022 10 11 23 15 00  .568295828998D-03  .272848410532D-11  .255600000000D+06
      .240089013672D+04 -.312934112549D+01  .279396772385D-08  .000000000000D+00
      .102812543945D+05  .574225425720D+00  .000000000000D+00  .400000000000D+01
      .232312495117D+05  .648937225342D-01 -.186264514923D-08  .000000000000D+00
R19 2022 10 11 23 15 00 -.206924043596D-03 -.909494701773D-12  .255600000000D+06
      .252216655273D+05 -.449201583862D+00  .372529029846D-08  .000000000000D+00
     -.238964404297D+04 -.192860603333D+00  .279396772385D-08  .300000000000D+01
      .303460839844D+04  .358218193054D+01  .931322574615D-09  .000000000000D+00
C21 2022 10 11 23 00 00 -.583650893532D-03 -.804094568707D-10  .000000000000D+00
      .100000000000D+01  .235625000000D+02  .398266589402D-08  .307025830156D+01
      .117765739560D-05  .375100644305D-03  .466592609882D-05  .528261740303D+04
      .255600000000D+06 -.181607902050D-07  .157609816867D+01  .465661287308D-08
      .969551597601D+00  .269203125000D+03 -.484590853040D+00 -.694564645691D-08
      .362872257943D-09  .000000000000D+00  .875000000000D+03  .000000000000D+00
      .200000000000D+01  .000000000000D+00  .117000000000D-07  .117000000000D-07
      .255600000000D+06  .100000000000D+01
C36 2022 10 11 23 00 00 -.641051214188D-03 -.184772197542D-09  .000000000000D+00
      .100000000000D+01  .115281250000D+03  .390016245742D-08 -.283553640487D+01
      .575464218855D-05  .788987963460D-03  .122073106468D-04  .528263107681D+04
      .255600000000D+06 -.242143869400D-07 -.261112752911D+01  .256113708019D-07
      .948587415376D+00  .105468750000D+03 -.133682267758D+01 -.678456831879D-08
      .115719105880D-09  .000000000000D+00  .875000000000D+03  .000000000000D+00
      .200000000000D+01  .000000000000D+00 -.204000000000D-07 -.204000000000D-07
      .255600000000D+06  .100000000000D+01
C26 2022 10 11 23 00 00 -.201659277081D-04 -.544719824802D-11  .000000000000D+00
      .100000000000D+01  .902656250000D+02  .389873382648D-08  .104286356471D+00
      .454345718026D-05  .785802491009D-03  .115246511996D-04  .528262965012D+04
      .255600000000D+06 -.232830643654D-08 -.263343514997D+01  .186264514923D-08
      .948626096393D+00  .121750000000D+03  .403913849730D+00 -.675885296193D-08
      .542879755978D-10  .000000000000D+00  .875000000000D+03  .000000000000D+00
      .200000000000D+01  .000000000000D+00 -.460000000000D-08 -.460000000000D-08
      .255600000000D+06  .100000000000D+01
C30 2022 10 11 23 00 00  .437255948782D-06  .230038210702D-12  .000000000000D+00
      .100000000000D+01 -.145125000000D+03  .385408910971D-08  .381015277261D+00
     -.716093927622D-05  .314908334985D-03  .543519854546D-05  .528261690140D+04
      .255600000000D+06  .149011611938D-07 -.542499479201D+00  .596046447754D-07
      .963134393339D+00  .251734375000D+03  .398533406733D+00 -.703457873273D-08
     -.478234206089D-09  .000000000000D+00  .875000000000D+03  .000000000000D+00
      .200000000000D+01  .000000000000D+00 -.940000000000D-08 -.940000000000D-08
      .255600000000D+06  .100000000000D+01
C14 2022 10 11 23 00 00  .563921639696D-03  .283781886878D-10  .000000000000D+00
      .100000000000D+01  .293125000000D+02  .408195574413D-08  .170204364904D+01
      .127870589495D-05  .104301807005D-02  .457512214780D-05  .528261828041D+04
      .255600000000D+06  .419095158577D-08  .157381909298D+01  .256113708019D-07
      .967614746730D+00  .271734375000D+03 -.270962201589D+00 -.698029075713D-08
      .326085011321D-09  .000000000000D+00  .875000000000D+03  .000000000000D+00
      .200000000000D+01  .000000000000D+00  .740000000000D-08  .160000000000D-08
      .255600000000D+06  .000000000000D+00
C22 2022 10 11 23 00 00 -.856105936691D-03  .216164863787D-10  .000000000000D+00
      .100000000000D+01  .219375000000D+02  .401731019424D-08  .273854837553D+01
      .111106783152D-05  .501908012666D-03  .482657924294D-05  .528261688423D+04
      .255600000000D+06 -.372529029846D-08  .157601688601D+01 -.558793544769D-08
      .969560876891D+00  .267750000000D+03  .628417898551D+00 -.692707425473D-08
      .371086885830D-09  .000000000000D+00  .875000000000D+03  .000000000000D+00
      .200000000000D+01  .000000000000D+00  .134000000000D-07  .134000000000D-07
      .255600000000D+06  .100000000000D+01
C29 2022 10 11 23 00 00  .255490886047D-04  .518074472211D-11  .000000000000D+00
      .100000000000D+01 -.138765625000D+03  .386480384174D-08 -.230355357602D+01
     -.698026269674D-05  .147243728861D-03  .500306487083D-05  .528262145424D+04
      .255600000000D+06  .242143869400D-07 -.543011055801D+00  .428408384323D-07
      .963185866112D+00  .260781250000D+03  .226923266500D+01 -.706565145560D-08
     -.507878298027D-09  .000000000000D+00  .875000000000D+03  .000000000000D+00
      .200000000000D+01  .000000000000D+00  .100000000000D-09  .100000000000D-09
      .255600000000D+06  .100000000000D+01
C27 2022 10 11 23 00 00  .344861764461D-04  .597477622932D-11  .000000000000D+00
      .100000000000D+01 -.145156250000D+03  .369515391799D-08  .213543335531D+00
     -.709528103471D-05  .526890507899D-03  .650994479656D-05  .528262276459D+04
      .255600000000D+06 -.377185642719D-07 -.503937047869D+00  .195577740669D-07
      .964809713957D+00  .232718750000D+03  .131386401283D+01 -.693564604035D-08
     -.493234830925D-09  .000000000000D+00  .875000000000D+03  .000000000000D+00
      .200000000000D+01  .000000000000D+00 -.430000000000D-08 -.430000000000D-08
      .255600000000D+06  .100000000000D+01
S31 2022 10 11 23  1 20  .461004674435D-07  .327418092638D-10  .255654000000D+06
     -.191422896000D+05 -.256250000000D-04 -.250000000000D-07  .000000000000D+00
     -.375687820800D+05 -.153750000000D-03  .000000000000D+00  .200000000000D+01
     -.604000000000D-01  .128000000000D-03  .000000000000D+00  .000000000000D+00
S33 2022 10 11 23  1 20  .102445483208D-07  .291038304567D-10  .255654000000D+06
     -.266142409600D+05  .348125000000D-03 -.625000000000D-07  .000000000000D+00
     -.326977271200D+05 -.686250000000D-03  .000000000000D+00  .200000000000D+01
     -.370160000000D+01  .676000000000D-03  .000000000000D+00  .000000000000D+00
